JCSAT-3A                
1 29272U 06033A   26193.45168238 -.00000344  00000+0  00000+0 0  9992
2 29272   0.0137 330.2609 0002481 159.2377  91.4372  1.00269195 47995
KOREASAT 5 (MUGUNGWHA 5)
1 29349U 06034A   26193.52892066 -.00000359  00000+0  00000+0 0  9995
2 29349   1.8480  82.6755 0001685  78.9510  72.2638  1.00271105 41575
DIRECTV 9S              
1 29494U 06043A   26193.47167332 -.00000115  00000+0  00000+0 0  9991
2 29494   2.4834  80.5965 0004980  33.0616 245.3055  1.00270965 51633
OPTUS D1                
1 29495U 06043B   26193.57405720 -.00000187  00000+0  00000+0 0  9998
2 29495   3.0975  79.3440 0003303  30.5721 179.1705  1.00270295 72374
BADR-4                  
1 29526U 06051A   26193.49854013  .00000154  00000+0  00000+0 0  9999
2 29526   2.0675  80.8420 0004705  28.5269  34.9467  1.00269734 51524
WILDBLUE-1              
1 29643U 06054A   26193.46967998 -.00000051  00000+0  00000+0 0  9993
2 29643   2.8657  80.1656 0001241  34.6548 233.4168  1.00270998 54044
SKYNET 5A               
1 30794U 07007B   26193.52699038 -.00000276  00000+0  00000+0 0  9994
2 30794   5.3626  73.4313 0003700  41.0653 100.8501  1.00270365 70957
ANIK F3                 
1 31102U 07009A   26192.96915877  .00000001  00000+0  00000+0 0  9994
2 31102   1.2589  83.5537 0002480  37.2214  39.2783  1.00272014 46816
ASTRA 1L                
1 31306U 07016A   26193.48666674 -.00000185  00000+0  00000+0 0  9998
2 31306   1.3845  81.3733 0005166  32.8875 326.8093  1.00271517 45231
GALAXY 17 (G-17)        
1 31307U 07016B   26193.47488000 -.00000208  00000+0  00000+0 0  9999
2 31307   3.0331  79.5815 0003544  33.7064 263.0081  1.00270452 70053
INTELSAT 11 (IS-11)     
1 32253U 07044B   26193.28084556 -.00000089  00000+0  00000+0 0  9995
2 32253   3.6281  78.3647 0004076 100.4528 227.8572  0.99051225 68694
WGS F1 (USA 195)        
1 32258U 07046A   26193.48328671 -.00000266  00000+0  00000+0 0  9990
2 32258   0.0143  69.0614 0000473 151.8752 200.9245  1.00270002 52583
SKYNET 5B               
1 32294U 07056B   26193.28266557  .00000136  00000+0  00000+0 0  9998
2 32294   5.3138  73.2044 0003732  39.4139 304.3991  1.00273300 68443
ASTRA 4A                
1 32299U 07057A   26193.35004604  .00000034  00000+0  00000+0 0  9992
2 32299   0.0469 282.6870 0002240 195.2112 303.1534  1.00270426 51892
HORIZONS-2              
1 32388U 07063B   26193.47704668 -.00000255  00000+0  00000+0 0  9994
2 32388   2.6647  80.3154 0003528  18.5750 289.4150  1.00270044 68063
THURAYA-3               
1 32404U 08001A   26193.14785791  .00000007  00000+0  00000+0 0  9990
2 32404   6.0301  35.8158 0002097  76.4091 294.7397  1.00271057 67748
THOR 5                  
1 32487U 08006A   26193.37128148 -.00000008  00000+0  00000+0 0  9990
2 32487   0.0527 235.8289 0002272 244.4986 302.8388  1.00270693 67561
AMC-14                  
1 32708U 08011A   26193.02247616 -.00000170  00000+0  00000+0 0  9996
2 32708  24.0389  20.2198 0039712   8.3023 346.5606  1.00420296 68411
DIRECTV 11              
1 32729U 08013A   26193.47201999 -.00000124  00000+0  00000+0 0  9993
2 32729   0.0136 269.7582 0000223  48.3726  42.9725  1.00266897 45840
ICO G1                  
1 32763U 08016A   26193.44975270 -.00000175  00000+0  00000+0 0  9997
2 32763   5.5305  36.0591 0002216  67.3795 255.9666  1.00272699 66796
VINASAT-1               
1 32767U 08018A   26193.58517005 -.00000328  00000+0  00000+0 0  9996
2 32767   0.0352 291.9215 0001395 199.9242 141.2322  1.00270458 66846
STAR ONE C2             
1 32768U 08018B   26193.47878002 -.00000277  00000+0  00000+0 0  9995
2 32768   1.3024  82.2235 0002657  45.1330 270.3699  1.00271822 66906
AMOS-3                  
1 32794U 08022A   26193.50322014  .00000023  00000+0  00000+0 0  9998
2 32794   0.5180  85.8457 0002972  84.7901 359.0748  1.00487303 82593
GALAXY 18 (G-18)        
1 32951U 08024A   26193.46733997  .00000000  00000+0  00000+0 0  9991
2 32951   0.0300  52.1335 0002827  75.1923 208.2806  1.00270344 46108
ZHONGXING-9             
1 33051U 08028A   26193.61427332 -.00000249  00000+0  00000+0 0  9993
2 33051   0.8302  85.0287 0003284  21.3292 137.6566  1.00270214 66297
SKYNET 5C               
1 33055U 08030A   26193.41683747 -.00000142  00000+0  00000+0 0  9994
2 33055   3.8508  76.7400 0004028  44.4307 301.3907  1.00272427 66204
TURKSAT 3A              
1 33056U 08030B   26193.50001346  .00000147  00000+0  00000+0 0  9998
2 33056   0.0275  68.7754 0004915  23.8591  59.7509  1.00268819 52611
ECHOSTAR 11             
1 33207U 08035A   26193.46993998 -.00000058  00000+0  00000+0 0  9991
2 33207   1.0680  83.8874 0002195  15.8150 250.0368  1.00270537 51462
SUPERBIRD-C2            
1 33274U 08038A   26193.52336559 -.00000308  00000+0  00000+0 0  9997
2 33274   2.4237  80.9486 0006120  39.0762 134.8012  1.00270090105981
INMARSAT 4-F3           
1 33278U 08039A   26193.47227999 -.00000142  00000+0  00000+0 0  9999
2 33278   4.3147  31.6962 0002710  85.0970 245.5882  1.00272113 46797
NIMIQ 4                 
1 33373U 08044A   26193.47540001 -.00000219  00000+0  00000+0 0  9998
2 33373   0.0019 358.0648 0001993  96.0963 285.3418  1.00272440 65237
GALAXY 19 (G-19)        
1 33376U 08045A   26193.47245332 -.00000138  00000+0  00000+0 0  9991
2 33376   0.0536 241.4688 0002325 239.9809 241.9928  1.00272083 65158
