OBJECT_NAME,OBJECT_ID,EPOCH,MEAN_MOTION,ECCENTRICITY,INCLINATION,RA_OF_ASC_NODE,ARG_OF_PERICENTER,MEAN_ANOMALY,EPHEMERIS_TYPE,CLASSIFICATION_TYPE,NORAD_CAT_ID,ELEMENT_SET_NO,REV_AT_EPOCH,BSTAR,MEAN_MOTION_DOT,MEAN_MOTION_DDOT
JCSAT-3A,2006-033A,2026-07-12T10:50:25.357632,1.00269195,.00024818,0.0137,330.2609,159.2377,91.4372,0,U,29272,999,4799,0,-.344E-5,0
KOREASAT 5 (MUGUNGWHA 5),2006-034A,2026-07-12T12:41:38.745024,1.00271105,.00016853,1.8480,82.6755,78.9510,72.2638,0,U,29349,999,4157,0,-.359E-5,0
DIRECTV 9S,2006-043A,2026-07-12T11:19:12.574848,1.00270965,.00049809,2.4834,80.5965,33.0616,245.3055,0,U,29494,999,5163,0,-.115E-5,0
OPTUS D1,2006-043B,2026-07-12T13:46:38.542080,1.00270295,.00033036,3.0975,79.3440,30.5721,179.1705,0,U,29495,999,7237,0,-.187E-5,0
BADR-4,2006-051A,2026-07-12T11:57:53.867232,1.00269734,.00047054,2.0675,80.8420,28.5269,34.9467,0,U,29526,999,5152,0,.154E-5,0
WILDBLUE-1,2006-054A,2026-07-12T11:16:20.350272,1.00270998,.00012412,2.8657,80.1656,34.6548,233.4168,0,U,29643,999,5404,0,-.51E-6,0
SKYNET 5A,2007-007B,2026-07-12T12:38:51.968832,1.00270365,.00037006,5.3626,73.4313,41.0653,100.8501,0,U,30794,999,7095,0,-.276E-5,0
ANIK F3,2007-009A,2026-07-11T23:15:35.317728,1.00272014,.00024803,1.2589,83.5537,37.2214,39.2783,0,U,31102,999,4681,0,.1E-7,0
ASTRA 1L,2007-016A,2026-07-12T11:40:48.006336,1.00271517,.00051665,1.3845,81.3733,32.8875,326.8093,0,U,31306,999,4523,0,-.185E-5,0
GALAXY 17 (G-17),2007-016B,2026-07-12T11:23:49.632000,1.00270452,.0003544,3.0331,79.5815,33.7064,263.0081,0,U,31307,999,7005,0,-.208E-5,0
INTELSAT 11 (IS-11),2007-044B,2026-07-12T06:44:25.056384,0.99051225,.00040765,3.6281,78.3647,100.4528,227.8572,0,U,32253,999,6869,0,-.89E-6,0
WGS F1 (USA 195),2007-046A,2026-07-12T11:35:55.971744,1.00270002,.00004731,0.0143,69.0614,151.8752,200.9245,0,U,32258,999,5258,0,-.266E-5,0
SKYNET 5B,2007-056B,2026-07-12T06:47:02.305248,1.00273300,.00037328,5.3138,73.2044,39.4139,304.3991,0,U,32294,999,6844,0,.136E-5,0
ASTRA 4A,2007-057A,2026-07-12T08:24:03.977856,1.00270426,.00022404,0.0469,282.6870,195.2112,303.1534,0,U,32299,999,5189,0,.34E-6,0
HORIZONS-2,2007-063B,2026-07-12T11:26:56.833152,1.00270044,.00035286,2.6647,80.3154,18.5750,289.4150,0,U,32388,999,6806,0,-.255E-5,0
THURAYA-3,2008-001A,2026-07-12T03:32:54.923424,1.00271057,.00020976,6.0301,35.8158,76.4091,294.7397,0,U,32404,999,6774,0,.7E-7,0
THOR 5,2008-006A,2026-07-12T08:54:38.719872,1.00270693,.00022726,0.0527,235.8289,244.4986,302.8388,0,U,32487,999,6756,0,-.8E-7,0
AMC-14,2008-011A,2026-07-12T00:32:21.940224,1.00420296,.00397121,24.0389,20.2198,8.3023,346.5606,0,U,32708,999,6841,0,-.17E-5,0
DIRECTV 11,2008-013A,2026-07-12T11:19:42.527136,1.00266897,.00002237,0.0136,269.7582,48.3726,42.9725,0,U,32729,999,4584,0,-.124E-5,0
ICO G1,2008-016A,2026-07-12T10:47:38.633280,1.00272699,.0002216,5.5305,36.0591,67.3795,255.9666,0,U,32763,999,6679,0,-.175E-5,0
VINASAT-1,2008-018A,2026-07-12T14:02:38.692320,1.00270458,.00013957,0.0352,291.9215,199.9242,141.2322,0,U,32767,999,6684,0,-.328E-5,0
STAR ONE C2,2008-018B,2026-07-12T11:29:26.593728,1.00271822,.00026578,1.3024,82.2235,45.1330,270.3699,0,U,32768,999,6690,0,-.277E-5,0
AMOS-3,2008-022A,2026-07-12T12:04:38.220096,1.00487303,.00029726,0.5180,85.8457,84.7901,359.0748,0,U,32794,999,8259,0,.23E-6,0
GALAXY 18 (G-18),2008-024A,2026-07-12T11:12:58.173408,1.00270344,.00028278,0.0300,52.1335,75.1923,208.2806,0,U,32951,999,4610,0,0,0
ZHONGXING-9,2008-028A,2026-07-12T14:44:33.214848,1.00270214,.00032847,0.8302,85.0287,21.3292,137.6566,0,U,33051,999,6629,0,-.249E-5,0
SKYNET 5C,2008-030A,2026-07-12T10:00:14.757408,1.00272427,.00040289,3.8508,76.7400,44.4307,301.3907,0,U,33055,999,6620,0,-.142E-5,0
TURKSAT 3A,2008-030B,2026-07-12T12:00:01.162944,1.00268819,.0004915,0.0275,68.7754,23.8591,59.7509,0,U,33056,999,5261,0,.147E-5,0
ECHOSTAR 11,2008-035A,2026-07-12T11:16:42.814272,1.00270537,.00021954,1.0680,83.8874,15.8150,250.0368,0,U,33207,999,5146,0,-.58E-6,0
SUPERBIRD-C2,2008-038A,2026-07-12T12:33:38.786976,1.00270090,.00061206,2.4237,80.9486,39.0762,134.8012,0,U,33274,999,10598,0,-.308E-5,0
INMARSAT 4-F3,2008-039A,2026-07-12T11:20:04.991136,1.00272113,.00027103,4.3147,31.6962,85.0970,245.5882,0,U,33278,999,4679,0,-.142E-5,0
NIMIQ 4,2008-044A,2026-07-12T11:24:34.560864,1.00272440,.0001993,0.0019,358.0648,96.0963,285.3418,0,U,33373,999,6523,0,-.219E-5,0
GALAXY 19 (G-19),2008-045A,2026-07-12T11:20:19.966848,1.00272083,.00023256,0.0536,241.4688,239.9809,241.9928,0,U,33376,999,6515,0,-.138E-5,0
